OBJECT_NAME,OBJECT_ID,EPOCH,MEAN_MOTION,ECCENTRICITY,INCLINATION,RA_OF_ASC_NODE,ARG_OF_PERICENTER,MEAN_ANOMALY,EPHEMERIS_TYPE,CLASSIFICATION_TYPE,NORAD_CAT_ID,ELEMENT_SET_NO,REV_AT_EPOCH,BSTAR,MEAN_MOTION_DOT,MEAN_MOTION_DDOT
GOES 16,2016-071A,2026-07-15T02:36:23.235264,1.00270970,.0000535,0.4037,85.4673,95.8659,46.0287,0,U,41866,999,3538,0,-.1E-5,0
TIANLIAN 1-04,2016-072A,2026-07-15T03:56:41.975808,1.00271175,.0044096,0.9380,82.7265,90.5381,355.7017,0,U,41869,999,3558,0,.2E-6,0
WGS F8 (USA 272),2016-075A,2026-07-15T03:09:38.796192,1.00269866,.0000211,0.0181,42.7619,319.2892,128.1618,0,U,41879,999,3510,0,-.212E-5,0
FENGYUN 4A,2016-077A,2026-07-15T05:24:13.044672,1.00268085,.000851,2.3910,79.9549,159.4801,258.4394,0,U,41882,999,3521,0,-.368E-5,0
ECHOSTAR 19,2016-079A,2026-07-14T19:48:00.948672,1.00271542,.00012489,0.0166,50.3681,71.5406,10.6711,0,U,41893,999,3498,0,-.147E-5,0
JCSAT-110A (JCSAT-15),2016-082A,2026-07-15T01:46:51.773376,1.00269933,.0000444,0.0170,43.2500,99.3428,287.1097,0,U,41903,999,3503,0,-.36E-5,0
STAR ONE D1,2016-082B,2026-07-14T19:51:45.590400,1.00268571,.00023435,0.0421,70.9000,59.1727,16.5964,0,U,41904,999,3505,0,0,0
TJS-2,2017-001A,2026-07-15T04:42:21.598848,1.00270565,.0000802,0.9035,84.9472,109.1529,236.0682,0,U,41911,999,3499,0,-.16E-6,0
SBIRS GEO-4 (USA 273),2017-004A,2026-07-15T03:12:23.725152,1.00281942,.0002589,2.2958,43.9833,66.0511,252.7004,0,U,41937,999,3487,0,.117E-5,0
HISPASAT 36W-1,2017-006A,2026-07-14T01:16:08.842368,1.00270272,.00010356,0.0090,302.2762,169.9893,162.6895,0,U,41942,999,3451,0,-.251E-5,0
TELKOM 3S,2017-007A,2026-07-14T05:25:16.851936,1.00270767,.00019737,0.0183,79.6116,31.8917,19.9065,0,U,41944,999,3441,0,-.369E-5,0
INTELSAT 32E (IS-32E),2017-007B,2026-07-15T04:14:38.823072,1.00266446,.000021,0.0232,53.6422,271.7559,348.1175,0,U,41945,999,3450,0,0,0
ECHOSTAR 23,2017-014A,2026-07-15T00:52:04.535040,1.00270617,.0002085,0.0174,34.0800,75.0026,86.9209,0,U,42070,999,3420,0,-.66E-6,0
WGS F9 (USA 275),2017-016A,2026-07-13T16:49:44.657184,1.00271906,.00005007,0.0259,29.5332,204.3837,298.1244,0,U,42075,999,3416,0,0,0
SES-10,2017-017A,2026-07-15T03:15:23.099328,1.00268375,.0002572,0.0181,47.2869,70.8741,156.7576,0,U,42432,999,3403,0,-.282E-5,0
CHINASAT 16 (SJ-13),2017-018A,2026-07-14T00:15:16.659936,1.00268531,.00050422,0.0866,88.8103,135.5393,181.8733,0,U,42662,999,3401,0,-.358E-5,0
KOREASAT 7,2017-023A,2026-07-14T05:38:38.957568,1.00271655,.00009475,0.0260,50.8541,95.1528,346.6529,0,U,42691,999,3364,0,-.368E-5,0
SGDC,2017-023B,2026-07-14T09:30:23.560992,1.00270708,.00022133,0.0206,64.8434,56.8675,238.2940,0,U,42692,999,3368,0,-.257E-5,0
GSAT-9,2017-024A,2026-07-15T02:52:21.717120,1.00267623,.0002319,0.0857,91.2150,33.5278,308.5769,0,U,42695,999,3357,0,-.294E-5,0
INMARSAT 5-F4,2017-025A,2026-07-14T01:42:36.304992,1.00272708,.00004367,0.0033,109.2613,82.2635,182.5773,0,U,42698,999,3354,0,.69E-6,0
SES-15,2017-026A,2026-07-15T00:46:50.039040,1.00268637,.0000276,0.0255,332.5228,128.9444,73.9557,0,U,42709,999,771,0,.51E-6,0
QZS-2 (MICHIBIKI-2),2017-028A,2026-07-14T10:42:39.613248,1.00276942,.07575565,39.3876,242.7519,269.5906,83.0468,0,U,42738,999,790,0,-.12E-5,0
VIASAT-2,2017-029A,2026-07-15T01:03:38.549088,1.00270601,.0000206,0.0173,313.1592,281.3053,4.4570,0,U,42740,999,3348,0,-.274E-5,0
EUTELSAT 172B,2017-029B,2026-07-15T04:42:38.860704,1.00269839,.0000166,0.0241,127.3482,185.4653,222.8873,0,U,42741,999,3402,0,-.16E-6,0
GSAT-19,2017-031A,2026-07-15T03:19:53.006016,1.00269759,.000623,0.0389,88.1289,1.6920,301.0162,0,U,42747,999,3342,0,.116E-5,0
ECHOSTAR 21,2017-032A,2026-07-14T13:27:59.078016,1.00273285,.0001958,1.7704,357.4644,111.2018,36.0243,0,U,42749,999,3337,0,.6E-6,0
BULGARIASAT-1,2017-038A,2026-07-15T03:06:46.763424,1.00271735,.0003168,0.0357,70.9268,57.8005,212.8218,0,U,42801,999,3312,0,0,0
HELLAS-SAT 3,2017-040A,2026-07-15T03:17:23.246304,1.00271232,.000319,0.0499,48.6755,27.4462,305.1964,0,U,42814,999,3308,0,.143E-5,0
GSAT-17,2017-040B,2026-07-15T02:57:21.944160,1.00270527,.0002244,0.0721,88.3916,167.5735,174.8395,0,U,42815,999,3306,0,-.267E-5,0
INTELSAT 35E (IS-35E),2017-041A,2026-07-15T02:56:25.256256,1.00266844,.0001662,0.0258,58.3427,52.7108,191.5252,0,U,42818,999,3309,0,0,0
COSMOS 2520,2017-046A,2026-07-13T22:14:00.515040,1.00269251,.00010153,0.0371,107.3958,352.7379,210.1305,0,U,42907,999,3266,0,.132E-5,0
TDRS 13,2017-047A,2026-07-15T03:03:02.120832,1.00271604,.0014751,3.4594,3.4149,111.3734,212.5441,0,U,42915,999,3262,0,-.109E-5,0
